{
  "type": "FeatureCollection",
  "features": [
    {
      "type": "Feature",
      "properties": {
        "norad_id": 66774,
        "name": "TRANSPORTER-15DN",
        "group": "last-30-days",
        "lat": -57.93350907670782,
        "lon": -120.1850429099698,
        "alt_km": 518.8283378847964,
        "timestamp": "2025-12-26T06:43:28.233655+00:00",
        "meta_object_name": "TRANSPORTER-15DN",
        "meta_object_id": "2025-276DN",
        "meta_epoch": "2025-12-25T21:46:12.142272",
        "meta_mean_motion": 15.18622952,
        "meta_eccentricity": 0.00030069,
        "meta_inclination": 97.4409,
        "meta_ra_of_asc_node": 71.489,
        "meta_arg_of_pericenter": 94.5156,
        "meta_mean_anomaly": 265.6422,
        "meta_ephemeris_type": 0,
        "meta_classification_type": "U",
        "meta_norad_cat_id": 66774,
        "meta_element_set_no": 999,
        "meta_rev_at_epoch": 412,
        "meta_bstar": 0.00035461737,
        "meta_mean_motion_dot": 7.275e-05,
        "meta_mean_motion_ddot": 0,
        "tle_line1": "1 66774U 25276DN  25359.90708498  .00007275  00000+0  35462-3 0  9994",
        "tle_line2": "2 66774  97.4409  71.4890 0003006  94.5156 265.6422 15.18622952  4128"
      },
      "geometry": {
        "type": "Point",
        "coordinates": [
          -120.1850429099698,
          -57.93350907670782
        ]
      }
    },
    {
      "type": "Feature",
      "properties": {
        "norad_id": 66775,
        "name": "PHI 1",
        "group": "last-30-days",
        "lat": -62.02647722896688,
        "lon": -122.39690937059389,
        "alt_km": 521.5139605152226,
        "timestamp": "2025-12-26T06:43:28.233666+00:00",
        "meta_object_name": "PHI 1",
        "meta_object_id": "2025-276DP",
        "meta_epoch": "2025-12-25T21:44:58.989120",
        "meta_mean_motion": 15.18430588,
        "meta_eccentricity": 0.00054972,
        "meta_inclination": 97.4333,
        "meta_ra_of_asc_node": 71.4659,
        "meta_arg_of_pericenter": 37.4503,
        "meta_mean_anomaly": 322.7113,
        "meta_ephemeris_type": 0,
        "meta_classification_type": "U",
        "meta_norad_cat_id": 66775,
        "meta_element_set_no": 999,
        "meta_rev_at_epoch": 412,
        "meta_bstar": -0.0072382054,
        "meta_mean_motion_dot": -0.00146086,
        "meta_mean_motion_ddot": 0,
        "tle_line1": "1 66775U 25276DP  25359.90623830 -.00146086  00000+0 -72382-2 0  9998",
        "tle_line2": "2 66775  97.4333  71.4659 0005497  37.4503 322.7113 15.18430588  4120"
      },
      "geometry": {
        "type": "Point",
        "coordinates": [
          -122.39690937059389,
          -62.02647722896688
        ]
      }
    },
    {
      "type": "Feature",
      "properties": {
        "norad_id": 66776,
        "name": "TRANSPORTER-15DQ",
        "group": "last-30-days",
        "lat": -65.17399023423503,
        "lon": -124.55416754585889,
        "alt_km": 518.7845609578799,
        "timestamp": "2025-12-26T06:43:28.233676+00:00",
        "meta_object_name": "TRANSPORTER-15DQ",
        "meta_object_id": "2025-276DQ",
        "meta_epoch": "2025-12-25T21:44:15.097920",
        "meta_mean_motion": 15.18739728,
        "meta_eccentricity": 0.00028229,
        "meta_inclination": 97.4372,
        "meta_ra_of_asc_node": 71.4791,
        "meta_arg_of_pericenter": 79.2307,
        "meta_mean_anomaly": 280.9245,
        "meta_ephemeris_type": 0,
        "meta_classification_type": "U",
        "meta_norad_cat_id": 66776,
        "meta_element_set_no": 999,
        "meta_rev_at_epoch": 412,
        "meta_bstar": 0.00040896523,
        "meta_mean_motion_dot": 8.43e-05,
        "meta_mean_motion_ddot": 0,
        "tle_line1": "1 66776U 25276DQ  25359.90573030  .00008430  00000+0  40897-3 0  9990",
        "tle_line2": "2 66776  97.4372  71.4791 0002822  79.2307 280.9245 15.18739728  4125"
      },
      "geometry": {
        "type": "Point",
        "coordinates": [
          -124.55416754585889,
          -65.17399023423503
        ]
      }
    },
    {
      "type": "Feature",
      "properties": {
        "norad_id": 66777,
        "name": "TRANSPORTER-15DR",
        "group": "last-30-days",
        "lat": -78.88273189136507,
        "lon": -149.84185021638154,
        "alt_km": 518.4450014811136,
        "timestamp": "2025-12-26T06:43:28.233685+00:00",
        "meta_object_name": "TRANSPORTER-15DR",
        "meta_object_id": "2025-276DR",
        "meta_epoch": "2025-12-25T21:40:15.401856",
        "meta_mean_motion": 15.18987764,
        "meta_eccentricity": 0.00034924,
        "meta_inclination": 97.4461,
        "meta_ra_of_asc_node": 71.512,
        "meta_arg_of_pericenter": 105.9186,
        "meta_mean_anomaly": 254.2433,
        "meta_ephemeris_type": 0,
        "meta_classification_type": "U",
        "meta_norad_cat_id": 66777,
        "meta_element_set_no": 999,
        "meta_rev_at_epoch": 412,
        "meta_bstar": 0.00059063115,
        "meta_mean_motion_dot": 0.000123,
        "meta_mean_motion_ddot": 0,
        "tle_line1": "1 66777U 25276DR  25359.90295604  .00012300  00000+0  59063-3 0  9995",
        "tle_line2": "2 66777  97.4461  71.5120 0003492 105.9186 254.2433 15.18987764  4126"
      },
      "geometry": {
        "type": "Point",
        "coordinates": [
          -149.84185021638154,
          -78.88273189136507
        ]
      }
    },
    {
      "type": "Feature",
      "properties": {
        "norad_id": 66778,
        "name": "TRANSPORTER-15DS",
        "group": "last-30-days",
        "lat": 76.7615878571506,
        "lon": 38.03150515766307,
        "alt_km": 507.88759505201506,
        "timestamp": "2025-12-26T06:43:28.233697+00:00",
        "meta_object_name": "TRANSPORTER-15DS",
        "meta_object_id": "2025-276DS",
        "meta_epoch": "2025-12-18T19:26:21.991200",
        "meta_mean_motion": 15.16535337,
        "meta_eccentricity": 0.00032319,
        "meta_inclination": 97.4427,
        "meta_ra_of_asc_node": 64.4586,
        "meta_arg_of_pericenter": 41.3734,
        "meta_mean_anomaly": 318.7744,
        "meta_ephemeris_type": 0,
        "meta_classification_type": "U",
        "meta_norad_cat_id": 66778,
        "meta_element_set_no": 999,
        "meta_rev_at_epoch": 304,
        "meta_bstar": 0.00025483693,
        "meta_mean_motion_dot": 4.904e-05,
        "meta_mean_motion_ddot": 0,
        "tle_line1": "1 66778U 25276DS  25352.80997675  .00004904  00000+0  25484-3 0  9996",
        "tle_line2": "2 66778  97.4427  64.4586 0003231  41.3734 318.7744 15.16535337  3043"
      },
      "geometry": {
        "type": "Point",
        "coordinates": [
          38.03150515766307,
          76.7615878571506
        ]
      }
    },
    {
      "type": "Feature",
      "properties": {
        "norad_id": 66791,
        "name": "STARLINK-35867",
        "group": "last-30-days",
        "lat": 41.027541345640024,
        "lon": -77.86914385451038,
        "alt_km": 438.9072546136658,
        "timestamp": "2025-12-26T06:43:28.233710+00:00",
        "meta_object_name": "STARLINK-35867",
        "meta_object_id": "2025-278A",
        "meta_epoch": "2025-12-25T22:00:01.999584",
        "meta_mean_motion": 15.4085621,
        "meta_eccentricity": 0.00015893,
        "meta_inclination": 43.0003,
        "meta_ra_of_asc_node": 173.2538,
        "meta_arg_of_pericenter": 301.4513,
        "meta_mean_anomaly": 305.6087,
        "meta_ephemeris_type": 0,
        "meta_classification_type": "U",
        "meta_norad_cat_id": 66791,
        "meta_element_set_no": 999,
        "meta_rev_at_epoch": 507,
        "meta_bstar": -0.0086893101,
        "meta_mean_motion_dot": -0.00348992,
        "meta_mean_motion_ddot": 0,
        "tle_line1": "1 66791U 25278A   25359.91668981 -.00348992  00000+0 -86893-2 0  9997",
        "tle_line2": "2 66791  43.0003 173.2538 0001589 301.4513 305.6087 15.40856210  5073"
      },
      "geometry": {
        "type": "Point",
        "coordinates": [
          -77.86914385451038,
          41.027541345640024
        ]
      }
    },
    {
      "type": "Feature",
      "properties": {
        "norad_id": 66792,
        "name": "STARLINK-35990",
        "group": "last-30-days",
        "lat": 16.887705224232313,
        "lon": -27.973948164440344,
        "alt_km": 412.93104757787387,
        "timestamp": "2025-12-26T06:43:28.233722+00:00",
        "meta_object_name": "STARLINK-35990",
        "meta_object_id": "2025-278B",
        "meta_epoch": "2025-12-25T22:00:01.999584",
        "meta_mean_motion": 15.5049911,
        "meta_eccentricity": 0.00016442,
        "meta_inclination": 43.0004,
        "meta_ra_of_asc_node": 173.1659,
        "meta_arg_of_pericenter": 272.8989,
        "meta_mean_anomaly": 10.3669,
        "meta_ephemeris_type": 0,
        "meta_classification_type": "U",
        "meta_norad_cat_id": 66792,
        "meta_element_set_no": 999,
        "meta_rev_at_epoch": 507,
        "meta_bstar": 0.0017991608,
        "meta_mean_motion_dot": 0.00106349,
        "meta_mean_motion_ddot": 0,
        "tle_line1": "1 66792U 25278B   25359.91668981  .00106349  00000+0  17992-2 0  9998",
        "tle_line2": "2 66792  43.0004 173.1659 0001644 272.8989  10.3669 15.50499110  5077"
      },
      "geometry": {
        "type": "Point",
        "coordinates": [
          -27.973948164440344,
          16.887705224232313
        ]
      }
    }
  ]
}